STARLINK-5581           
1 55373U 23013AU  25207.10818385 -.00000342  00000+0 -10239-4 0  9991
2 55373  43.0054 104.6683 0001074 267.4433  92.6286 15.02535085137907
STARLINK-5578           
1 55374U 23013AV  25207.08373686  .00002315  00000+0  18626-3 0  9996
2 55374  43.0041 104.4910 0001288 268.9040  91.1654 15.02556726137900
STARLINK-5588           
1 55375U 23013AW  25207.07377544  .00001025  00000+0  90974-4 0  9997
2 55375  43.0035 104.4169 0001178 268.7722  91.2985 15.02533667137900
STARLINK-5586           
1 55376U 23013AX  25206.98129330  .00000256  00000+0  34042-4 0  9994
2 55376  43.0056  79.4324 0000887 271.8446  88.2295 15.02537008138186
STARLINK-5567           
1 55377U 23013AY  25206.12976661 -.00000161  00000+0  31537-5 0  9991
2 55377  43.0042 109.3749 0001095 260.9944  99.0775 15.02534909137336
STARLINK-5572           
1 55378U 23013AZ  25207.14358835 -.00000702  00000+0 -36898-4 0  9998
2 55378  43.0040 104.0831 0001233 259.5065 100.5638 15.02533711137911
STARLINK-5569           
1 55379U 23013BA  25206.13642790 -.00000114  00000+0  66167-5 0  9992
2 55379  43.0038 109.4251 0001119 266.0515  94.0199 15.02533413137334
STARLINK-5571           
1 55380U 23013BB  25206.34636819 -.00001996  00000+0 -13274-3 0  9991
2 55380  43.0041  82.4180 0001260 258.1303 101.9398 15.02538783137665
STARLINK-5575           
1 55381U 23013BC  25207.06378961 -.00000648  00000+0 -32916-4 0  9991
2 55381  43.0027 104.3396 0000884 282.6206  77.4538 15.02546514137909
STARLINK-5576           
1 55382U 23013BD  25206.73805806 -.00000202  00000+0  10721-6 0  9995
2 55382  43.0041 106.2006 0001192 261.3257  98.7451 15.02533413137429
STARLINK-5531           
1 55383U 23013BE  25206.34303363 -.00000648  00000+0 -32898-4 0  9996
2 55383  43.0048  82.3913 0001466 257.8952 102.1726 15.02536622137660
STARLINK-5537           
1 55384U 23013BF  25206.13753581  .00000193  00000+0  29354-4 0  9991
2 55384  43.0047 109.4346 0001243 251.6008 108.4699 15.02534369137336
STARLINK-5556           
1 55385U 23013BG  25207.12027399 -.00000257  00000+0 -39252-5 0  9995
2 55385  43.0037 103.9064 0001305 261.1761  98.8934 15.02535264137916
STARLINK-5555           
1 55386U 23013BH  25207.05712689 -.00000392  00000+0 -13976-4 0  9995
2 55386  43.0047 104.2911 0001301 257.3484 102.7213 15.02533611137906
STARLINK-5085           
1 55392U 23014B   25207.18821497  .00000004  00000+0  81823-5 0  9990
2 55392  69.9977 255.4357 0004043 268.7931  91.2765 14.98329054137681
STARLINK-4786           
1 55393U 23014C   25206.94227112  .00000014  00000+0  89479-5 0  9994
2 55393  69.9991 276.0669 0003700 268.7966  91.2769 14.98334388138096
STARLINK-5274           
1 55395U 23014E   25207.20096816 -.00000685  00000+0 -49643-4 0  9995
2 55395  69.9989 275.3438 0002592 267.3712  92.7150 14.98336015137192
STARLINK-5283           
1 55396U 23014F   25206.93809543 -.00000122  00000+0 -23837-5 0  9998
2 55396  69.9989 276.0427 0003547 269.2200  90.8553 14.98332656138096
STARLINK-5224           
1 55397U 23014G   25207.16737013  .00000172  00000+0  22200-4 0  9992
2 55397  69.9983 255.7525 0003645 269.1232  90.9509 14.98331610137671
STARLINK-5275           
1 55398U 23014H   25207.22183345  .00000950  00000+0  87398-4 0  9996
2 55398  69.9986 275.4260 0003525 270.4767  89.5988 14.98327850137198
STARLINK-5276           
1 55399U 23014J   25207.21348309  .00000559  00000+0  54624-4 0  9990
2 55399  69.9986 275.3974 0003721 269.2807  90.7926 14.98329819137192
STARLINK-5632           
1 55400U 23014K   25207.09666139 -.00000049  00000+0  37332-5 0  9996
2 55400  69.9985 275.7865 0003531 271.0967  88.9787 14.98328977137170
STARLINK-5076           
1 55401U 23014L   25206.95061750 -.00000040  00000+0  44183-5 0  9992
2 55401  69.9987 276.0852 0003823 269.8390  90.2331 14.98331884138096
STARLINK-5071           
1 55402U 23014M   25206.50416882 -.00000500  00000+0 -34125-4 0  9990
2 55402  69.9989 277.3365 0003680 272.5248  87.5490 14.98332790138021
STARLINK-5597           
1 55403U 23014N   25206.49164548 -.00000452  00000+0 -30064-4 0  9992
2 55403  69.9988 277.2928 0003877 268.8546  91.2169 14.98332838138020
STARLINK-5607           
1 55404U 23014P   25206.51251704 -.00000472  00000+0 -31775-4 0  9999
2 55404  69.9988 277.3660 0003676 269.8237  90.2500 14.98332519138024
STARLINK-5623           
1 55405U 23014Q   25206.49999557 -.00000209  00000+0 -97294-5 0  9999
2 55405  69.9985 277.3213 0003542 271.1512  88.9241 14.98332675138029
STARLINK-5630           
1 55406U 23014R   25206.51669173 -.00001164  00000+0 -89710-4 0  9995
2 55406  69.9986 277.3809 0003835 269.6383  90.4337 14.98334304138020
STARLINK-5019           
1 55407U 23014S   25207.17594370  .00000086  00000+0  15016-4 0  9993
2 55407  69.9985 275.6679 0003664 269.7814  90.2925 14.98327836137185
STARLINK-5092           
1 55408U 23014T   25207.18846567  .00000142  00000+0  19722-4 0  9994
2 55408  69.9986 275.7122 0003874 269.7029  90.3686 14.98328565137187
