OBJECT_NAME,OBJECT_ID,EPOCH,MEAN_MOTION,ECCENTRICITY,INCLINATION,RA_OF_ASC_NODE,ARG_OF_PERICENTER,MEAN_ANOMALY,EPHEMERIS_TYPE,CLASSIFICATION_TYPE,NORAD_CAT_ID,ELEMENT_SET_NO,REV_AT_EPOCH,BSTAR,MEAN_MOTION_DOT,MEAN_MOTION_DDOT
STARLINK-5581,2023-013AU,2025-07-26T02:35:47.084640,15.02535085,.0001074,43.0054,104.6683,267.4433,92.6286,0,U,55373,999,13790,-.10239E-4,-.342E-5,0
STARLINK-5578,2023-013AV,2025-07-26T02:00:34.864704,15.02556726,.0001288,43.0041,104.4910,268.9040,91.1654,0,U,55374,999,13790,.18626E-3,.2315E-4,0
STARLINK-5588,2023-013AW,2025-07-26T01:46:14.198016,15.02533667,.0001178,43.0035,104.4169,268.7722,91.2985,0,U,55375,999,13790,.90974E-4,.1025E-4,0
STARLINK-5586,2023-013AX,2025-07-25T23:33:03.741120,15.02537008,.0000887,43.0056,79.4324,271.8446,88.2295,0,U,55376,999,13818,.34042E-4,.256E-5,0
STARLINK-5567,2023-013AY,2025-07-25T03:06:51.835104,15.02534909,.0001095,43.0042,109.3749,260.9944,99.0775,0,U,55377,999,13733,.31537E-5,-.161E-5,0
STARLINK-5572,2023-013AZ,2025-07-26T03:26:46.033440,15.02533711,.0001233,43.0040,104.0831,259.5065,100.5638,0,U,55378,999,13791,-.36898E-4,-.702E-5,0
STARLINK-5569,2023-013BA,2025-07-25T03:16:27.370560,15.02533413,.0001119,43.0038,109.4251,266.0515,94.0199,0,U,55379,999,13733,.66167E-5,-.114E-5,0
STARLINK-5571,2023-013BB,2025-07-25T08:18:46.211616,15.02538783,.000126,43.0041,82.4180,258.1303,101.9398,0,U,55380,999,13766,-.13274E-3,-.1996E-4,0
STARLINK-5575,2023-013BC,2025-07-26T01:31:51.422304,15.02546514,.0000884,43.0027,104.3396,282.6206,77.4538,0,U,55381,999,13790,-.32916E-4,-.648E-5,0
STARLINK-5576,2023-013BD,2025-07-25T17:42:48.216384,15.02533413,.0001192,43.0041,106.2006,261.3257,98.7451,0,U,55382,999,13742,.10721E-6,-.202E-5,0
STARLINK-5531,2023-013BE,2025-07-25T08:13:58.105632,15.02536622,.0001466,43.0048,82.3913,257.8952,102.1726,0,U,55383,999,13766,-.32898E-4,-.648E-5,0
STARLINK-5537,2023-013BF,2025-07-25T03:18:03.093984,15.02534369,.0001243,43.0047,109.4346,251.6008,108.4699,0,U,55384,999,13733,.29354E-4,.193E-5,0
STARLINK-5556,2023-013BG,2025-07-26T02:53:11.672736,15.02535264,.0001305,43.0037,103.9064,261.1761,98.8934,0,U,55385,999,13791,-.39252E-5,-.257E-5,0
STARLINK-5555,2023-013BH,2025-07-26T01:22:15.763296,15.02533611,.0001301,43.0047,104.2911,257.3484,102.7213,0,U,55386,999,13790,-.13976E-4,-.392E-5,0
STARLINK-5085,2023-014B,2025-07-26T04:31:01.773408,14.98329054,.0004043,69.9977,255.4357,268.7931,91.2765,0,U,55392,999,13768,.81823E-5,.4E-7,0
STARLINK-4786,2023-014C,2025-07-25T22:36:52.224768,14.98334388,.00037,69.9991,276.0669,268.7966,91.2769,0,U,55393,999,13809,.89479E-5,.14E-6,0
STARLINK-5274,2023-014E,2025-07-26T04:49:23.649024,14.98336015,.0002592,69.9989,275.3438,267.3712,92.7150,0,U,55395,999,13719,-.49643E-4,-.685E-5,0
STARLINK-5283,2023-014F,2025-07-25T22:30:51.445152,14.98332656,.0003547,69.9989,276.0427,269.2200,90.8553,0,U,55396,999,13809,-.23837E-5,-.122E-5,0
STARLINK-5224,2023-014G,2025-07-26T04:01:00.779232,14.98331610,.0003645,69.9983,255.7525,269.1232,90.9509,0,U,55397,999,13767,.222E-4,.172E-5,0
STARLINK-5275,2023-014H,2025-07-26T05:19:26.410080,14.98327850,.0003525,69.9986,275.4260,270.4767,89.5988,0,U,55398,999,13719,.87398E-4,.95E-5,0
STARLINK-5276,2023-014J,2025-07-26T05:07:24.938976,14.98329819,.0003721,69.9986,275.3974,269.2807,90.7926,0,U,55399,999,13719,.54624E-4,.559E-5,0
STARLINK-5632,2023-014K,2025-07-26T02:19:11.544096,14.98328977,.0003531,69.9985,275.7865,271.0967,88.9787,0,U,55400,999,13717,.37332E-5,-.49E-6,0
STARLINK-5076,2023-014L,2025-07-25T22:48:53.352000,14.98331884,.0003823,69.9987,276.0852,269.8390,90.2331,0,U,55401,999,13809,.44183E-5,-.4E-6,0
STARLINK-5071,2023-014M,2025-07-25T12:06:00.186048,14.98332790,.000368,69.9989,277.3365,272.5248,87.5490,0,U,55402,999,13802,-.34125E-4,-.5E-5,0
STARLINK-5597,2023-014N,2025-07-25T11:47:58.169472,14.98332838,.0003877,69.9988,277.2928,268.8546,91.2169,0,U,55403,999,13802,-.30064E-4,-.452E-5,0
STARLINK-5607,2023-014P,2025-07-25T12:18:01.472256,14.98332519,.0003676,69.9988,277.3660,269.8237,90.2500,0,U,55404,999,13802,-.31775E-4,-.472E-5,0
STARLINK-5623,2023-014Q,2025-07-25T11:59:59.617248,14.98332675,.0003542,69.9985,277.3213,271.1512,88.9241,0,U,55405,999,13802,-.97294E-5,-.209E-5,0
STARLINK-5630,2023-014R,2025-07-25T12:24:02.165472,14.98334304,.0003835,69.9986,277.3809,269.6383,90.4337,0,U,55406,999,13802,-.8971E-4,-.1164E-4,0
STARLINK-5019,2023-014S,2025-07-26T04:13:21.535680,14.98327836,.0003664,69.9985,275.6679,269.7814,90.2925,0,U,55407,999,13718,.15016E-4,.86E-6,0
STARLINK-5092,2023-014T,2025-07-26T04:31:23.433888,14.98328565,.0003874,69.9986,275.7122,269.7029,90.3686,0,U,55408,999,13718,.19722E-4,.142E-5,0
